TEVEL2-1                
1 63217U 25052H   26068.64782323  .00020683  00000+0  70600-3 0  9994
2 63217  97.3991 324.7682 0004767 104.8919 255.2849 15.30341923 54855
STARLINK-36522          
1 67461U 26008S   26068.43783774  .00035412  00000+0  12884-2 0  9994
2 67461  43.0018 206.6580 0002991 301.8818  58.1742 15.27623629  9536
